NORAD_CAT_ID,OBJECT_NAME,OBJECT_TYPE,EPOCH,MEAN_MOTION,ECCENTRICITY,INCLINATION,RA_OF_ASC_NODE,ARG_OF_PERICENTER,MEAN_ANOMALY,BSTAR,MEAN_MOTION_DOT,MEAN_MOTION_DDOT,TLE_LINE0,TLE_LINE1,TLE_LINE2,SEMIMAJOR_AXIS,PERIOD,APOGEE,PERIGEE,DECAYED
53534.0,STARLINK-4488,PAYLOAD,2023-03-25 03:30:45,15.08842467,0.0001976,53.2164,244.8693,102.2991,257.8222,-0.00057569,-9.439e-05,0.0,0 STARLINK-4488,1 53534U 22101H   23084.14635939 -.00009439  00000-0 -57569-3 0  9995,2 53534  53.2164 244.8693 0001976 102.2991 257.8222 15.08842467 33049,6917.873,95.437,541.105,538.371,0.0
53534.0,STARLINK-4488,PAYLOAD,2023-03-25 11:27:41,15.08802035,0.0001691,53.2168,243.3823,115.9923,244.1243,-0.001439,-0.00023093,0.0,0 STARLINK-4488,1 53534U 22101H   23084.47756844 -.00023093  00000-0 -14390-2 0  9996,2 53534  53.2168 243.3823 0001691 115.9923 244.1243 15.08802035 33096,6917.996,95.44,541.031,538.692,0.0
53534.0,STARLINK-4488,PAYLOAD,2023-03-25 21:00:02,15.08792025,0.0001816,53.2168,241.5983,119.1499,240.9675,-0.00028409,-4.801e-05,0.0,0 STARLINK-4488,1 53534U 22101H   23084.87502380 -.00004801  00000-0 -28409-3 0  9997,2 53534  53.2168 241.5983 0001816 119.1499 240.9675 15.08792025 33153,6918.027,95.441,541.148,538.636,0.0
53534.0,STARLINK-4488,PAYLOAD,2023-03-26 03:21:35,15.08803539,0.0001437,53.2154,240.4085,119.0045,241.1091,0.00087819,0.00013702,0.0,0 STARLINK-4488,1 53534U 22101H   23085.13999086  .00013702  00000-0  87819-3 0  9998,2 53534  53.2154 240.4085 0001437 119.0045 241.1091 15.08803539 33196,6917.992,95.44,540.851,538.863,0.0
53534.0,STARLINK-4488,PAYLOAD,2023-03-26 17:40:03,15.08847501,0.0001306,53.2147,237.7314,115.4918,244.6209,0.0019594,0.0003104,0.0,0 STARLINK-4488,1 53534U 22101H   23085.73615501  .00031040  00000-0  19594-2 0  9990,2 53534  53.2147 237.7314 0001306 115.4918 244.6209 15.08847501 33282,6917.857,95.437,540.626,538.819,0.0
53534.0,STARLINK-4488,PAYLOAD,2023-03-27 03:12:22,15.08848345,0.0001298,53.2141,235.9472,105.688,254.4256,0.00052151,8.024e-05,0.0,0 STARLINK-4488,1 53534U 22101H   23086.13359346  .00008024  00000-0  52151-3 0  9990,2 53534  53.2141 235.9472 0001298 105.6880 254.4256 15.08848345 33345,6917.855,95.437,540.618,538.822,0.0
53534.0,STARLINK-4488,PAYLOAD,2023-03-27 14:20:03,15.08860248,7.7e-05,53.214,233.8669,122.6857,237.4209,0.00081418,0.00012701,0.0,0 STARLINK-4488,1 53534U 22101H   23086.59726657  .00012701  00000-0  81418-3 0  9998,2 53534  53.2140 233.8669 0000770 122.6857 237.4209 15.08860248 33419,6917.818,95.436,540.216,539.151,0.0
53534.0,STARLINK-4488,PAYLOAD,2023-03-27 17:30:49,15.08875283,0.0001131,53.2142,233.2712,107.365,252.7466,0.0012891,0.00020307,0.0,0 STARLINK-4488,1 53534U 22101H   23086.72974370  .00020307  00000-0  12891-2 0  9999,2 53534  53.2142 233.2712 0001131 107.3650 252.7466 15.08875283 33439,6917.773,95.435,540.42,538.855,0.0
53534.0,STARLINK-4488,PAYLOAD,2023-03-28 03:03:08,15.08864233,0.0001396,53.214,231.4871,79.7663,280.3487,0.0012145,0.00019106,0.0,0 STARLINK-4488,1 53534U 22101H   23087.12718435  .00019106  00000-0  12145-2 0  9999,2 53534  53.2140 231.4871 0001396  79.7663 280.3487 15.08864233 33491,6917.806,95.436,540.637,538.706,0.0
53534.0,STARLINK-4488,PAYLOAD,2023-03-28 09:24:41,15.08848853,0.0001211,53.2144,230.3,68.0242,292.0879,0.00080996,0.00012629,0.0,0 STARLINK-4488,1 53534U 22101H   23087.39214447  .00012629  00000-0  80996-3 0  9995,2 53534  53.2144 230.3000 0001211  68.0242 292.0879 15.08848853 33537,6917.853,95.437,540.556,538.881,0.0
53534.0,STARLINK-4488,PAYLOAD,2023-03-28 14:10:50,15.08850959,0.0001033,53.2138,229.406,77.0141,283.0966,0.0015951,0.00025197,0.0,0 STARLINK-4488,1 53534U 22101H   23087.59086369  .00025197  00000-0  15951-2 0  9999,2 53534  53.2138 229.4060 0001033  77.0141 283.0966 15.08850959 33565,6917.847,95.437,540.427,538.997,0.0
53534.0,STARLINK-4488,PAYLOAD,2023-03-28 15:46:13,15.08852739,9.93e-05,53.2139,229.1085,76.731,283.3793,0.0017157,0.00027132,0.0,0 STARLINK-4488,1 53534U 22101H   23087.65710266  .00027132  00000-0  17157-2 0  9997,2 53534  53.2139 229.1085 0000993  76.7310 283.3793 15.08852739 33578,6917.841,95.437,540.393,539.02,0.0
53534.0,STARLINK-4488,PAYLOAD,2023-03-29 02:53:55,15.08855994,0.0001081,53.2129,227.0284,67.9104,292.2003,0.0011107,0.00017441,0.0,0 STARLINK-4488,1 53534U 22101H   23088.12078172  .00017441  00000-0  11107-2 0  9994,2 53534  53.2129 227.0284 0001081  67.9104 292.2003 15.08855994 33644,6917.832,95.437,540.444,538.949,0.0
53534.0,STARLINK-4488,PAYLOAD,2023-03-29 12:26:14,15.08850605,0.0001327,53.215,225.2442,85.1058,275.0086,0.00066397,0.00010298,0.0,0 STARLINK-4488,1 53534U 22101H   23088.51822288  .00010298  00000-0  66397-3 0  9997,2 53534  53.2150 225.2442 0001327  85.1058 275.0086 15.08850605 33708,6917.848,95.437,540.631,538.795,0.0
53534.0,STARLINK-4488,PAYLOAD,2023-03-29 20:23:09,15.08866908,0.000105,53.2148,223.7555,84.6541,275.4571,0.00064606,0.00010017,0.0,0 STARLINK-4488,1 53534U 22101H   23088.84941334  .00010017  00000-0  64606-3 0  9997,2 53534  53.2148 223.7555 0001050  84.6541 275.4571 15.08866908 33758,6917.798,95.436,540.39,538.937,0.0
53534.0,STARLINK-4488,PAYLOAD,2023-03-30 09:06:15,15.08834208,0.0001058,53.2136,221.377,92.4211,267.6902,-5.0043e-05,-1.084e-05,0.0,0 STARLINK-4488,1 53534U 22101H   23089.37934426 -.00001084  00000-0 -50043-4 0  9997,2 53534  53.2136 221.3770 0001058  92.4211 267.6902 15.08834208 33835,6917.898,95.438,540.495,539.031,0.0
53534.0,STARLINK-4488,PAYLOAD,2023-03-30 13:52:24,15.0884251,8.98e-05,53.2144,220.488,71.5715,288.5375,0.00041768,6.366e-05,0.0,0 STARLINK-4488,1 53534U 22101H   23089.57806330  .00006366  00000-0  41768-3 0  9990,2 53534  53.2144 220.4880 0000898  71.5715 288.5375 15.08842510 33868,6917.873,95.437,540.359,539.116,0.0
53534.0,STARLINK-4488,PAYLOAD,2023-03-30 20:13:56,15.0886614,0.0001182,53.2145,219.2922,123.2923,236.8182,0.0011856,0.00018645,0.0,0 STARLINK-4488,1 53534U 22101H   23089.84301604  .00018645  00000-0  11856-2 0  9991,2 53534  53.2145 219.2922 0001182 123.2923 236.8182 15.08866140 33907,6917.8,95.436,540.483,538.848,0.0
53534.0,STARLINK-4488,PAYLOAD,2023-03-31 12:07:48,15.08858698,9.59e-05,53.2144,216.3216,103.9253,256.1846,0.001598,0.00025249,0.0,0 STARLINK-4488,1 53534U 22101H   23090.50541956  .00025249  00000-0  15980-2 0  9992,2 53534  53.2144 216.3216 0000959 103.9253 256.1846 15.08858698 34005,6917.823,95.436,540.352,539.025,0.0
53534.0,STARLINK-4488,PAYLOAD,2023-04-01 00:50:53,15.08812292,0.0002346,53.2149,213.9423,68.6779,291.4463,0.0022181,0.00035164,0.0,0 STARLINK-4488,1 53534U 22101H   23091.03534259  .00035164  00000-0  22181-2 0  9997,2 53534  53.2149 213.9423 0002346  68.6779 291.4463 15.08812292 34080,6917.965,95.439,541.453,538.207,0.0
53534.0,STARLINK-4488,PAYLOAD,2023-04-01 11:58:35,15.08821629,7.03e-05,53.215,211.8605,99.2479,260.8593,0.00091491,0.00014296,0.0,0 STARLINK-4488,1 53534U 22101H   23091.49902644  .00014296  00000-0  91491-3 0  9998,2 53534  53.2150 211.8605 0000703  99.2479 260.8593 15.08821629 34159,6917.937,95.439,540.288,539.315,0.0
53534.0,STARLINK-4488,PAYLOAD,2023-04-01 13:33:59,15.08824692,6.18e-05,53.2146,211.5632,78.752,281.3541,0.0014037,0.00022113,0.0,0 STARLINK-4488,1 53534U 22101H   23091.56526783  .00022113  00000-0  14037-2 0  9999,2 53534  53.2146 211.5632 0000618  78.7520 281.3541 15.08824692 34160,6917.927,95.439,540.22,539.365,0.0
53534.0,STARLINK-4488,PAYLOAD,2023-04-02 13:24:47,15.08836711,0.0001001,53.2155,207.1051,84.9462,275.1645,0.00089241,0.00013942,0.0,0 STARLINK-4488,1 53534U 22101H   23092.55888023  .00013942  00000-0  89241-3 0  9997,2 53534  53.2155 207.1051 0001001  84.9462 275.1645 15.08836711 34315,6917.89,95.438,540.448,539.063,0.0
53534.0,STARLINK-4488,PAYLOAD,2023-04-02 16:35:33,15.08846143,0.0001025,53.2155,206.5105,84.401,275.7099,0.001092,0.00017137,0.0,0 STARLINK-4488,1 53534U 22101H   23092.69135898  .00017137  00000-0  10920-2 0  9994,2 53534  53.2155 206.5105 0001025  84.4010 275.7099 15.08846143 34339,6917.862,95.437,540.436,539.018,0.0
53534.0,STARLINK-4488,PAYLOAD,2023-04-03 11:40:10,15.08852704,0.0001114,53.2151,202.9413,76.4825,283.6292,0.00043028,6.569e-05,0.0,0 STARLINK-4488,1 53534U 22101H   23093.48623567  .00006569  00000-0  43028-3 0  9990,2 53534  53.2151 202.9413 0001114  76.4825 283.6292 15.08852704 34457,6917.842,95.437,540.477,538.936,0.0
53534.0,STARLINK-4488,PAYLOAD,2023-04-03 16:26:19,15.08862484,0.0001078,53.215,202.0483,77.5784,282.5329,0.00073649,0.0001146,0.0,0 STARLINK-4488,1 53534U 22101H   23093.68495150  .00011460  00000-0  73649-3 0  9995,2 53534  53.2150 202.0483 0001078  77.5784 282.5329 15.08862484 34487,6917.812,95.436,540.422,538.931,0.0
53534.0,STARLINK-4488,PAYLOAD,2023-04-04 00:23:15,15.08856847,0.0001018,53.2152,200.5632,82.3351,277.7757,0.00042379,6.466e-05,0.0,0 STARLINK-4488,1 53534U 22101H   23094.01615004  .00006466  00000-0  42379-3 0  9991,2 53534  53.2152 200.5632 0001018  82.3351 277.7757 15.08856847 34539,6917.829,95.436,540.398,538.99,0.0
53534.0,STARLINK-4488,PAYLOAD,2023-04-04 11:30:57,15.0885527,9.92e-05,53.2152,198.4816,81.954,278.1565,0.00033197,5.002e-05,0.0,0 STARLINK-4488,1 53534U 22101H   23094.47982745  .00005002  00000-0  33197-3 0  9993,2 53534  53.2152 198.4816 0000992  81.9540 278.1565 15.08855270 34602,6917.834,95.437,540.385,539.012,0.0
53534.0,STARLINK-4488,PAYLOAD,2023-04-04 16:17:06,15.08860962,0.0001184,53.2149,197.589,88.944,271.1688,0.00059159,9.145e-05,0.0,0 STARLINK-4488,1 53534U 22101H   23094.67854480  .00009145  00000-0  59159-3 0  9997,2 53534  53.2149 197.5890 0001184  88.9440 271.1688 15.08860962 34636,6917.816,95.436,540.5,538.862,0.0
53534.0,STARLINK-4488,PAYLOAD,2023-04-05 12:57:07,15.0884125,0.0001081,53.2156,193.7223,91.4416,268.67,0.00035766,5.409e-05,0.0,0 STARLINK-4488,1 53534U 22101H   23095.53967021  .00005409  00000-0  35766-3 0  9996,2 53534  53.2156 193.7223 0001081  91.4416 268.6700 15.08841250 34769,6917.877,95.437,540.489,538.994,0.0
